start=new Date('2022-06-05T00:00:00.000Z').valueOf();
sats=[{"REV_AT_EPOCH":"441","ELEMENT_SET_NO":"999","PERIOD":"92.467","MEAN_MOTION":"15.57318457","MEAN_MOTION_DDOT":"0.0000000000000","OBJECT_NAME":"STARLINK-3898","EPHEMERIS_TYPE":"0","MEAN_MOTION_DOT":"-0.00319775","TIME_SYSTEM":"UTC","NORAD_CAT_ID":"52458","SITE":"AFETR","RCS_SIZE":"LARGE","COUNTRY_CODE":"US","FILE":"3479630","TLE_LINE2":"2 52458  53.2160 128.4296 0001347  25.0673 335.0405 15.57318457  4418","OBJECT_TYPE":"PAYLOAD","RA_OF_ASC_NODE":"128.4296","MEAN_ELEMENT_THEORY":"SGP4","ECCENTRICITY":"0.00013470","ARG_OF_PERICENTER":"25.0673","INCLINATION":"53.2160","LAUNCH_DATE":"2022-05-06","BSTAR":"-0.00446710000000","PERIAPSIS":"394.511","SEMIMAJOR_AXIS":"6773.559","CENTER_NAME":"EARTH","DECAY_DATE":null,"EPOCH":"2022-06-03T09:56:36.561984","TLE_LINE1":"1 52458U 22049H   22154.41431206 -.00319775  00000-0 -44671-2 0  9994","REF_FRAME":"TEME","GP_ID":"205300299","OBJECT_ID":"2022-049H","MEAN_ANOMALY":"335.0405","CLASSIFICATION_TYPE":"U","APOAPSIS":"396.336"},{"TLE_LINE1":"1 52459U 22049J   22155.37071958 -.00001808  00000-0 -84546-5 0  9998","EPOCH":"2022-06-04T08:53:50.171712","DECAY_DATE":null,"CENTER_NAME":"EARTH","SEMIMAJOR_AXIS":"6727.867","PERIAPSIS":"348.408","BSTAR":"-0.00000845460000","LAUNCH_DATE":"2022-05-06","ARG_OF_PERICENTER":"16.5366","INCLINATION":"53.2171","ECCENTRICITY":"0.00019680","MEAN_ELEMENT_THEORY":"SGP4","APOAPSIS":"351.056","CLASSIFICATION_TYPE":"U","MEAN_ANOMALY":"343.5718","OBJECT_ID":"2022-049J","GP_ID":"205354474","REF_FRAME":"TEME","NORAD_CAT_ID":"52459","TIME_SYSTEM":"UTC","MEAN_MOTION_DOT":"-0.00001808","EPHEMERIS_TYPE":"0","PERIOD":"91.533","MEAN_MOTION_DDOT":"0.0000000000000","OBJECT_NAME":"STARLINK-3856","MEAN_MOTION":"15.73209987","ELEMENT_SET_NO":"999","REV_AT_EPOCH":"457","RA_OF_ASC_NODE":"122.9722","OBJECT_TYPE":"PAYLOAD","TLE_LINE2":"2 52459  53.2171 122.9722 0001968  16.5366 343.5718 15.73209987  4570","FILE":"3480894","COUNTRY_CODE":"US","RCS_SIZE":"LARGE","SITE":"AFETR"},{"COUNTRY_CODE":"US","FILE":"3480894","TLE_LINE2":"2 52460  53.2165 122.9695 0002220  23.5829 336.5292 15.73246035  4572","OBJECT_TYPE":"PAYLOAD","RA_OF_ASC_NODE":"122.9695","SITE":"AFETR","RCS_SIZE":"LARGE","EPHEMERIS_TYPE":"0","MEAN_MOTION_DOT":"0.00011375","NORAD_CAT_ID":"52460","TIME_SYSTEM":"UTC","REV_AT_EPOCH":"457","ELEMENT_SET_NO":"999","MEAN_MOTION_DDOT":"0.0000000000000","PERIOD":"91.531","MEAN_MOTION":"15.73246035","OBJECT_NAME":"STARLINK-3865","OBJECT_ID":"2022-049K","APOAPSIS":"351.122","MEAN_ANOMALY":"336.5292","CLASSIFICATION_TYPE":"U","GP_ID":"205354032","REF_FRAME":"TEME","DECAY_DATE":null,"EPOCH":"2022-06-04T08:53:31.059168","SEMIMAJOR_AXIS":"6727.764","CENTER_NAME":"EARTH","TLE_LINE1":"1 52460U 22049K   22155.37049837  .00011375  00000-0  85191-4 0  9995","ECCENTRICITY":"0.00022200","INCLINATION":"53.2165","ARG_OF_PERICENTER":"23.5829","MEAN_ELEMENT_THEORY":"SGP4","PERIAPSIS":"348.135","LAUNCH_DATE":"2022-05-06","BSTAR":"0.00008519100000"},{"RCS_SIZE":"LARGE","SITE":"AFETR","RA_OF_ASC_NODE":"122.9724","OBJECT_TYPE":"PAYLOAD","TLE_LINE2":"2 52461  53.2173 122.9724 0002374  21.3219 338.7900 15.73233820  4572","COUNTRY_CODE":"US","FILE":"3480894","PERIOD":"91.531","MEAN_MOTION_DDOT":"0.0000000000000","MEAN_MOTION":"15.73233820","OBJECT_NAME":"STARLINK-3900","ELEMENT_SET_NO":"999","REV_AT_EPOCH":"457","NORAD_CAT_ID":"52461","TIME_SYSTEM":"UTC","MEAN_MOTION_DOT":"0.00005727","EPHEMERIS_TYPE":"0","GP_ID":"205354156","REF_FRAME":"TEME","APOAPSIS":"351.261","CLASSIFICATION_TYPE":"U","MEAN_ANOMALY":"338.7900","OBJECT_ID":"2022-049L","PERIAPSIS":"348.067","BSTAR":"0.00004513600000","LAUNCH_DATE":"2022-05-06","INCLINATION":"53.2173","ARG_OF_PERICENTER":"21.3219","ECCENTRICITY":"0.00023740","MEAN_ELEMENT_THEORY":"SGP4","TLE_LINE1":"1 52461U 22049L   22155.37083704  .00005727  00000-0  45136-4 0  9996","EPOCH":"2022-06-04T08:54:00.320256","DECAY_DATE":null,"CENTER_NAME":"EARTH","SEMIMAJOR_AXIS":"6727.799"},{"TLE_LINE1":"1 52462U 22049M   22155.37017502 -.00006789  00000-0 -43992-4 0  9999","EPOCH":"2022-06-04T08:53:03.121728","DECAY_DATE":null,"CENTER_NAME":"EARTH","SEMIMAJOR_AXIS":"6727.920","PERIAPSIS":"348.265","BSTAR":"-0.00004399200000","LAUNCH_DATE":"2022-05-06","INCLINATION":"53.2172","ARG_OF_PERICENTER":"27.0762","ECCENTRICITY":"0.00022590","MEAN_ELEMENT_THEORY":"SGP4","APOAPSIS":"351.305","CLASSIFICATION_TYPE":"U","MEAN_ANOMALY":"333.0375","OBJECT_ID":"2022-049M","GP_ID":"205354262","REF_FRAME":"TEME","NORAD_CAT_ID":"52462","TIME_SYSTEM":"UTC","MEAN_MOTION_DOT":"-0.00006789","EPHEMERIS_TYPE":"0","PERIOD":"91.534","MEAN_MOTION_DDOT":"0.0000000000000","MEAN_MOTION":"15.73191271","OBJECT_NAME":"STARLINK-3903","ELEMENT_SET_NO":"999","REV_AT_EPOCH":"457","RA_OF_ASC_NODE":"122.9678","TLE_LINE2":"2 52462  53.2172 122.9678 0002259  27.0762 333.0375 15.73191271  4575","OBJECT_TYPE":"PAYLOAD","COUNTRY_CODE":"US","FILE":"3480894","RCS_SIZE":"LARGE","SITE":"AFETR"},{"PERIAPSIS":"347.983","BSTAR":"0.00002470900000","LAUNCH_DATE":"2022-05-06","INCLINATION":"53.2184","ARG_OF_PERICENTER":"26.3508","ECCENTRICITY":"0.00025720","MEAN_ELEMENT_THEORY":"SGP4","TLE_LINE1":"1 52463U 22049N   22155.37061468  .00002850  00000-0  24709-4 0  9998","EPOCH":"2022-06-04T08:53:41.108352","DECAY_DATE":null,"CENTER_NAME":"EARTH","SEMIMAJOR_AXIS":"6727.848","GP_ID":"205354562","REF_FRAME":"TEME","APOAPSIS":"351.444","CLASSIFICATION_TYPE":"U","MEAN_ANOMALY":"333.7642","OBJECT_ID":"2022-049N","PERIOD":"91.532","OBJECT_NAME":"STARLINK-3885","MEAN_MOTION_DDOT":"0.0000000000000","MEAN_MOTION":"15.73216505","ELEMENT_SET_NO":"999","REV_AT_EPOCH":"457","NORAD_CAT_ID":"52463","TIME_SYSTEM":"UTC","MEAN_MOTION_DOT":"0.00002850","EPHEMERIS_TYPE":"0","RCS_SIZE":"LARGE","SITE":"AFETR","RA_OF_ASC_NODE":"122.9714","TLE_LINE2":"2 52463  53.2184 122.9714 0002572  26.3508 333.7642 15.73216505  4570","OBJECT_TYPE":"PAYLOAD","FILE":"3480894","COUNTRY_CODE":"US"},{"TLE_LINE1":"1 52464U 22049P   22155.37029922 -.00003877  00000-0 -23215-4 0  9991","DECAY_DATE":null,"EPOCH":"2022-06-04T08:53:13.852608","SEMIMAJOR_AXIS":"6727.927","CENTER_NAME":"EARTH","PERIAPSIS":"348.369","LAUNCH_DATE":"2022-05-06","BSTAR":"-0.00002321500000","ECCENTRICITY":"0.00021140","INCLINATION":"53.2173","ARG_OF_PERICENTER":"22.1376","MEAN_ELEMENT_THEORY":"SGP4","APOAPSIS":"351.214","MEAN_ANOMALY":"337.9735","CLASSIFICATION_TYPE":"U","OBJECT_ID":"2022-049P","GP_ID":"205354368","REF_FRAME":"TEME","NORAD_CAT_ID":"52464","TIME_SYSTEM":"UTC","EPHEMERIS_TYPE":"0","MEAN_MOTION_DOT":"-0.00003877","PERIOD":"91.534","MEAN_MOTION_DDOT":"0.0000000000000","OBJECT_NAME":"STARLINK-3904","MEAN_MOTION":"15.73188920","REV_AT_EPOCH":"457","ELEMENT_SET_NO":"999","RA_OF_ASC_NODE":"122.9687","FILE":"3480894","COUNTRY_CODE":"US","OBJECT_TYPE":"PAYLOAD","TLE_LINE2":"2 52464  53.2173 122.9687 0002114  22.1376 337.9735 15.73188920  4575","RCS_SIZE":"LARGE","SITE":"AFETR"},{"ELEMENT_SET_NO":"999","REV_AT_EPOCH":"457","PERIOD":"91.532","MEAN_MOTION":"15.73223791","MEAN_MOTION_DDOT":"0.0000000000000","OBJECT_NAME":"STARLINK-3863","MEAN_MOTION_DOT":"0.00001432","EPHEMERIS_TYPE":"0","TIME_SYSTEM":"UTC","NORAD_CAT_ID":"52465","SITE":"AFETR","RCS_SIZE":"LARGE","TLE_LINE2":"2 52465  53.2167 122.9689 0001610  22.9088 337.2004 15.73223791  4577","OBJECT_TYPE":"PAYLOAD","FILE":"3480894","COUNTRY_CODE":"US","RA_OF_ASC_NODE":"122.9689","MEAN_ELEMENT_THEORY":"SGP4","INCLINATION":"53.2167","ARG_OF_PERICENTER":"22.9088","ECCENTRICITY":"0.00016100","BSTAR":"0.00001460900000","LAUNCH_DATE":"2022-05-06","PERIAPSIS":"348.609","CENTER_NAME":"EARTH","SEMIMAJOR_AXIS":"6727.827","EPOCH":"2022-06-04T08:53:21.837696","DECAY_DATE":null,"TLE_LINE1":"1 52465U 22049Q   22155.37039164  .00001432  00000-0  14609-4 0  9991","REF_FRAME":"TEME","GP_ID":"205353819","OBJECT_ID":"2022-049Q","CLASSIFICATION_TYPE":"U","MEAN_ANOMALY":"337.2004","APOAPSIS":"350.776"},{"LAUNCH_DATE":"2022-05-06","BSTAR":"0.00205450000000","PERIAPSIS":"345.024","MEAN_ELEMENT_THEORY":"SGP4","ECCENTRICITY":"0.00041500","INCLINATION":"53.2168","ARG_OF_PERICENTER":"356.5752","TLE_LINE1":"1 52466U 22049R   22155.30622574  .00307442  00000-0  20545-2 0  9992","SEMIMAJOR_AXIS":"6725.950","CENTER_NAME":"EARTH","DECAY_DATE":null,"EPOCH":"2022-06-04T07:20:57.903936","REF_FRAME":"TEME","GP_ID":"205353926","MEAN_ANOMALY":"3.5239","CLASSIFICATION_TYPE":"U","APOAPSIS":"350.607","OBJECT_ID":"2022-049R","OBJECT_NAME":"STARLINK-3840","PERIOD":"91.493","MEAN_MOTION_DDOT":"0.0000000000000","MEAN_MOTION":"15.73882347","REV_AT_EPOCH":"456","ELEMENT_SET_NO":"999","TIME_SYSTEM":"UTC","NORAD_CAT_ID":"52466","EPHEMERIS_TYPE":"0","MEAN_MOTION_DOT":"0.00307442","RCS_SIZE":"LARGE","SITE":"AFETR","RA_OF_ASC_NODE":"123.2775","FILE":"3480894","COUNTRY_CODE":"US","OBJECT_TYPE":"PAYLOAD","TLE_LINE2":"2 52466  53.2168 123.2775 0004150 356.5752   3.5239 15.73882347  4565"},{"SITE":"AFETR","RCS_SIZE":"LARGE","TLE_LINE2":"2 52467  53.2176 122.9675 0002274  25.7111 334.4022 15.73198798  4576","OBJECT_TYPE":"PAYLOAD","COUNTRY_CODE":"US","FILE":"3480894","RA_OF_ASC_NODE":"122.9675","ELEMENT_SET_NO":"999","REV_AT_EPOCH":"457","MEAN_MOTION_DDOT":"0.0000000000000","PERIOD":"91.533","MEAN_MOTION":"15.73198798","OBJECT_NAME":"STARLINK-3873","MEAN_MOTION_DOT":"-0.00002549","EPHEMERIS_TYPE":"0","TIME_SYSTEM":"UTC","NORAD_CAT_ID":"52467","REF_FRAME":"TEME","GP_ID":"205354475","OBJECT_ID":"2022-049S","CLASSIFICATION_TYPE":"U","MEAN_ANOMALY":"334.4022","APOAPSIS":"351.294","MEAN_ELEMENT_THEORY":"SGP4","INCLINATION":"53.2176","ARG_OF_PERICENTER":"25.7111","ECCENTRICITY":"0.00022740","BSTAR":"-0.00001373700000","LAUNCH_DATE":"2022-05-06","PERIAPSIS":"348.234","CENTER_NAME":"EARTH","SEMIMAJOR_AXIS":"6727.899","EPOCH":"2022-06-04T08:52:52.908384","DECAY_DATE":null,"TLE_LINE1":"1 52467U 22049S   22155.37005681 -.00002549  00000-0 -13737-4 0  9993"}];
